{
  "norad_id": 41890,
  "name": "CYGFM07",
  "history": [
    {
      "epoch": "2026-03-28T22:18:22.160160",
      "apogee_km": 403.602530672335,
      "perigee_km": 395.349160405809,
      "latitude_deg": 15.417395975967873,
      "longitude_deg": -101.77537759998813,
      "semi_major_axis_km": 6777.612845539072,
      "eccentricity": 0.00060887,
      "inclination_deg": 34.9462,
      "raan_deg": 42.1917,
      "arg_perigee_deg": 170.3103,
      "mean_anomaly_deg": 189.7739,
      "mean_motion_rev_day": 15.559213
    },
    {
      "epoch": "2026-03-29T04:27:56.194848",
      "apogee_km": 403.5490015897458,
      "perigee_km": 395.272260422762,
      "latitude_deg": -34.5580702832628,
      "longitude_deg": -77.13756128004752,
      "semi_major_axis_km": 6777.547631006254,
      "eccentricity": 0.0006106,
      "inclination_deg": 34.9462,
      "raan_deg": 40.4941,
      "arg_perigee_deg": 172.8186,
      "mean_anomaly_deg": 187.2626,
      "mean_motion_rev_day": 15.55943757
    }
  ]
}